{
    "links": {
        "self": "http://www.neowsapp.com/rest/v1/neo/3472695?api_key=iIulBulltgU6a56xZRHN4H3l9WmuAYTsLGpBGhQ2"
    },
    "id": "3472695",
    "neo_reference_id": "3472695",
    "name": "(2009 UU87)",
    "designation": "2009 UU87",
    "nasa_jpl_url": "http://ssd.jpl.nasa.gov/sbdb.cgi?sstr=3472695",
    "absolute_magnitude_h": 25.5,
    "estimated_diameter": {
        "kilometers": {
            "estimated_diameter_min": 0.0211132445,
            "estimated_diameter_max": 0.0472106499
        },
        "meters": {
            "estimated_diameter_min": 21.113244479,
            "estimated_diameter_max": 47.2106498806
        },
        "miles": {
            "estimated_diameter_min": 0.0131191578,
            "estimated_diameter_max": 0.0293353287
        },
        "feet": {
            "estimated_diameter_min": 69.2691770164,
            "estimated_diameter_max": 154.8905885541
        }
    },
    "is_potentially_hazardous_asteroid": false,
    "close_approach_data": [
        {
            "close_approach_date": "2009-10-31",
            "close_approach_date_full": "2009-Oct-31 03:33",
            "epoch_date_close_approach": 1256959980000,
            "relative_velocity": {
                "kilometers_per_second": "11.1778033061",
                "kilometers_per_hour": "40240.0919017807",
                "miles_per_hour": "25003.6282153037"
            },
            "miss_distance": {
                "astronomical": "0.0562544594",
                "lunar": "21.8829847066",
                "kilometers": "8415547.304241478",
                "miles": "5229178.6146212764"
            },
            "orbiting_body": "Earth"
        }
    ],
    "orbital_data": {
        "orbit_id": "7",
        "orbit_determination_date": "2017-04-06 08:59:20",
        "first_observation_date": "2009-10-26",
        "last_observation_date": "2009-10-30",
        "data_arc_in_days": 4,
        "observations_used": 23,
        "orbit_uncertainty": "8",
        "minimum_orbit_intersection": ".0503289",
        "jupiter_tisserand_invariant": "4.096",
        "epoch_osculation": "2455131.5",
        "eccentricity": ".3962712911107438",
        "semi_major_axis": "1.679426469216782",
        "inclination": "16.97668838421281",
        "ascending_node_longitude": "216.357997393237",
        "orbital_period": "794.9501900593033",
        "perihelion_distance": "1.01391797393469",
        "perihelion_argument": "207.4079105601423",
        "aphelion_distance": "2.344934964498874",
        "perihelion_time": "2455157.478868129327",
        "mean_anomaly": "348.2352471343393",
        "mean_motion": ".4528585620856874",
        "equinox": "J2000",
        "orbit_class": {
            "orbit_class_type": "APO",
            "orbit_class_description": "Near-Earth asteroid orbits which cross the Earth’s orbit similar to that of 1862 Apollo",
            "orbit_class_range": "a (semi-major axis) > 1.0 AU; q (perihelion) < 1.017 AU"
        }
    },
    "is_sentry_object": false
}